[{"OBJECT_NAME":"STARLINK-3078","OBJECT_ID":"2021-082E","EPOCH":"2026-03-09T22:02:30.521184","MEAN_MOTION":14.98354201,"ECCENTRICITY":0.00027779,"INCLINATION":69.9988,"RA_OF_ASC_NODE":293.883,"ARG_OF_PERICENTER":269.5182,"MEAN_ANOMALY":90.5658,"EPHEMERIS_TYPE":0,"CLASSIFICATION_TYPE":"U","NORAD_CAT_ID":49134,"ELEMENT_SET_NO":999,"REV_AT_EPOCH":24721,"BSTAR":-0.00042795452,"MEAN_MOTION_DOT":-5.199e-5,"MEAN_MOTION_DDOT":0},{"OBJECT_NAME":"HAWK-8A","OBJECT_ID":"2024-066B","EPOCH":"2026-03-09T09:46:26.156352","MEAN_MOTION":14.98766556,"ECCENTRICITY":0.00042143,"INCLINATION":45.5937,"RA_OF_ASC_NODE":72.3645,"ARG_OF_PERICENTER":254.4969,"MEAN_ANOMALY":105.5447,"EPHEMERIS_TYPE":0,"CLASSIFICATION_TYPE":"U","NORAD_CAT_ID":59443,"ELEMENT_SET_NO":999,"REV_AT_EPOCH":10486,"BSTAR":0.0002089936,"MEAN_MOTION_DOT":2.325e-5,"MEAN_MOTION_DDOT":0}]
